QIANFAN-57              
1 62787U 25016C   25215.95258635  .00000101  00000+0  13760-3 0  9993
2 62787  88.9853 116.6841 0002273  91.7416 268.3996 13.50956805 29547
QIANFAN-58              
1 62788U 25016D   25215.92382302  .00000117  00000+0  16249-3 0  9992
2 62788  88.9821 116.5593 0014808   9.6140 350.5291 13.50956002 29580
QIANFAN-59              
1 62789U 25016E   25215.93621475  .00000119  00000+0  16538-3 0  9994
2 62789  88.9845 116.5976 0015804  12.1403 348.0126 13.50960348 29587
QIANFAN-60              
1 62790U 25016F   25215.92778380  .00000119  00000+0  16506-3 0  9998
2 62790  88.9826 116.6027 0016201   9.8302 350.3163 13.50957439 29561
QIANFAN-61              
1 62791U 25016G   25215.94034384  .00000112  00000+0  15432-3 0  9990
2 62791  88.9894 116.6703 0015592   8.8517 351.2906 13.50958185 29583
QIANFAN-62              
1 62792U 25016H   25215.87021676  .00000109  00000+0  15070-3 0  9997
2 62792  88.9840 116.6168 0017006   8.7334 351.4110 13.50957156 29562
QIANFAN-63              
1 62793U 25016J   25215.95664248  .00000110  00000+0  15208-3 0  9990
2 62793  88.9847 116.5477 0016952  12.8484 347.3096 13.50954276 29616
QIANFAN-64              
1 62794U 25016K   25215.94837232  .00000109  00000+0  15050-3 0  9998
2 62794  88.9834 116.5463 0014597   7.9732 352.1648 13.50956775 29604
